{"fetched_at":"2026-04-08T17:04:03Z","count":12288,"tles":[{"name":"STARLINK-36249","line1":"1 68532U 26068AA  26097.11339914 -.00434999  73045-4 -10951-2 0  9992","line2":"2 68532  53.1613   6.8461 0000405 349.9698  10.1323 15.94798051  1164","category":"Starlink"}]}