{
  "norad_id": 68532,
  "name": "STARLINK-36249",
  "history": [
    {
      "epoch": "2026-04-07T02:43:17.685696Z",
      "apogee_km": 289.14716859124474,
      "perigee_km": 288.60714044472843,
      "latitude_deg": 3.599548287273485e-05,
      "longitude_deg": 130.62747875750617,
      "height_km": 289.5362332890578,
      "semi_major_axis_km": 6667.014154517986,
      "eccentricity": 4.05e-05,
      "inclination_deg": 53.1613,
      "raan_deg": 6.8461,
      "arg_perigee_deg": 349.9698,
      "mean_anomaly_deg": 10.1323,
      "mean_motion_rev_day": 15.94798051
    }
  ]
}